{
  "type": "FeatureCollection",
  "features": [
    {
      "type": "Feature",
      "properties": {
        "norad_id": 41556,
        "name": "ZIYUAN 3-2 (ZY 3-2)",
        "group": "resource",
        "lat": 19.339609148038853,
        "lon": 54.8469328522559,
        "alt_km": 505.6318483210471,
        "timestamp": "2025-12-09T05:43:20.385118+00:00",
        "meta_object_name": "ZIYUAN 3-2 (ZY 3-2)",
        "meta_object_id": "2016-033A",
        "meta_epoch": "2025-12-08T20:09:57.153312",
        "meta_mean_motion": 15.21415965,
        "meta_eccentricity": 0.0012408,
        "meta_inclination": 97.4043,
        "meta_ra_of_asc_node": 57.0713,
        "meta_arg_of_pericenter": 264.3396,
        "meta_mean_anomaly": 95.6425,
        "meta_ephemeris_type": 0,
        "meta_classification_type": "U",
        "meta_norad_cat_id": 41556,
        "meta_element_set_no": 999,
        "meta_rev_at_epoch": 52904,
        "meta_bstar": 0.00048418,
        "meta_mean_motion_dot": 0.00010827,
        "meta_mean_motion_ddot": 0,
        "tle_line1": "1 41556U 16033A   25342.84024483  .00010827  00000+0  48418-3 0  9998",
        "tle_line2": "2 41556  97.4043  57.0713 0012408 264.3396  95.6425 15.21415965529041"
      },
      "geometry": {
        "type": "Point",
        "coordinates": [
          54.8469328522559,
          19.339609148038853
        ]
      }
    },
    {
      "type": "Feature",
      "properties": {
        "norad_id": 41599,
        "name": "CARTOSAT-2C",
        "group": "resource",
        "lat": -9.171785946574982,
        "lon": 41.739289159337986,
        "alt_km": 511.59440346117026,
        "timestamp": "2025-12-09T05:43:20.385129+00:00",
        "meta_object_name": "CARTOSAT-2C",
        "meta_object_id": "2016-040A",
        "meta_epoch": "2025-12-08T20:16:42.352032",
        "meta_mean_motion": 15.19232132,
        "meta_eccentricity": 0.0010897,
        "meta_inclination": 97.4767,
        "meta_ra_of_asc_node": 40.1348,
        "meta_arg_of_pericenter": 76.5546,
        "meta_mean_anomaly": 283.6902,
        "meta_ephemeris_type": 0,
        "meta_classification_type": "U",
        "meta_norad_cat_id": 41599,
        "meta_element_set_no": 999,
        "meta_rev_at_epoch": 52481,
        "meta_bstar": 0.00024305,
        "meta_mean_motion_dot": 5.059e-05,
        "meta_mean_motion_ddot": 0,
        "tle_line1": "1 41599U 16040A   25342.84493463  .00005059  00000+0  24305-3 0  9991",
        "tle_line2": "2 41599  97.4767  40.1348 0010897  76.5546 283.6902 15.19232132524817"
      },
      "geometry": {
        "type": "Point",
        "coordinates": [
          41.739289159337986,
          -9.171785946574982
        ]
      }
    },
    {
      "type": "Feature",
      "properties": {
        "norad_id": 41601,
        "name": "SKYSAT-C1",
        "group": "resource",
        "lat": -58.64971285927173,
        "lon": -171.15650210046167,
        "alt_km": 477.1502124005583,
        "timestamp": "2025-12-09T05:43:20.385139+00:00",
        "meta_object_name": "SKYSAT-C1",
        "meta_object_id": "2016-040C",
        "meta_epoch": "2025-12-08T16:08:39.611616",
        "meta_mean_motion": 15.32476434,
        "meta_eccentricity": 0.0002823,
        "meta_inclination": 96.9825,
        "meta_ra_of_asc_node": 19.9156,
        "meta_arg_of_pericenter": 26.9507,
        "meta_mean_anomaly": 333.1882,
        "meta_ephemeris_type": 0,
        "meta_classification_type": "U",
        "meta_norad_cat_id": 41601,
        "meta_element_set_no": 999,
        "meta_rev_at_epoch": 52865,
        "meta_bstar": 0.00038709,
        "meta_mean_motion_dot": 0.00012074,
        "meta_mean_motion_ddot": 0,
        "tle_line1": "1 41601U 16040C   25342.67268069  .00012074  00000+0  38709-3 0  9996",
        "tle_line2": "2 41601  96.9825  19.9156 0002823  26.9507 333.1882 15.32476434528651"
      },
      "geometry": {
        "type": "Point",
        "coordinates": [
          -171.15650210046167,
          -58.64971285927173
        ]
      }
    },
    {
      "type": "Feature",
      "properties": {
        "norad_id": 41603,
        "name": "LAPAN-A3",
        "group": "resource",
        "lat": 35.3986785854017,
        "lon": -24.191088336896183,
        "alt_km": 464.41001635575594,
        "timestamp": "2025-12-09T05:43:20.385150+00:00",
        "meta_object_name": "LAPAN-A3",
        "meta_object_id": "2016-040E",
        "meta_epoch": "2025-12-08T21:43:35.938848",
        "meta_mean_motion": 15.31506422,
        "meta_eccentricity": 0.0010123,
        "meta_inclination": 97.143,
        "meta_ra_of_asc_node": 340.6007,
        "meta_arg_of_pericenter": 348.4799,
        "meta_mean_anomaly": 11.621,
        "meta_ephemeris_type": 0,
        "meta_classification_type": "U",
        "meta_norad_cat_id": 41603,
        "meta_element_set_no": 999,
        "meta_rev_at_epoch": 52567,
        "meta_bstar": 0.00022012,
        "meta_mean_motion_dot": 6.633e-05,
        "meta_mean_motion_ddot": 0,
        "tle_line1": "1 41603U 16040E   25342.90527707  .00006633  00000+0  22012-3 0  9995",
        "tle_line2": "2 41603  97.1430 340.6007 0010123 348.4799  11.6210 15.31506422525676"
      },
      "geometry": {
        "type": "Point",
        "coordinates": [
          -24.191088336896183,
          35.3986785854017
        ]
      }
    },
    {
      "type": "Feature",
      "properties": {
        "norad_id": 41604,
        "name": "BIROS",
        "group": "resource",
        "lat": -36.04589969183872,
        "lon": -170.6479317516158,
        "alt_km": 312.8593339685758,
        "timestamp": "2025-12-09T05:43:20.385160+00:00",
        "meta_object_name": "BIROS",
        "meta_object_id": "2016-040F",
        "meta_epoch": "2025-12-08T15:12:13.776192",
        "meta_mean_motion": 15.87952948,
        "meta_eccentricity": 0.0003072,
        "meta_inclination": 97.0685,
        "meta_ra_of_asc_node": 13.9056,
        "meta_arg_of_pericenter": 155.8564,
        "meta_mean_anomaly": 204.2853,
        "meta_ephemeris_type": 0,
        "meta_classification_type": "U",
        "meta_norad_cat_id": 41604,
        "meta_element_set_no": 999,
        "meta_rev_at_epoch": 52807,
        "meta_bstar": 0.00067624,
        "meta_mean_motion_dot": 0.00185324,
        "meta_mean_motion_ddot": 0,
        "tle_line1": "1 41604U 16040F   25342.63349278  .00185324  00000+0  67624-3 0  9994",
        "tle_line2": "2 41604  97.0685  13.9056 0003072 155.8564 204.2853 15.87952948528076"
      },
      "geometry": {
        "type": "Point",
        "coordinates": [
          -170.6479317516158,
          -36.04589969183872
        ]
      }
    },
    {
      "type": "Feature",
      "properties": {
        "norad_id": 41727,
        "name": "GAOFEN-3",
        "group": "resource",
        "lat": -36.46663730274564,
        "lon": 162.60556362808495,
        "alt_km": 758.4694127026287,
        "timestamp": "2025-12-09T05:43:20.385171+00:00",
        "meta_object_name": "GAOFEN-3",
        "meta_object_id": "2016-049A",
        "meta_epoch": "2025-12-08T20:23:41.042112",
        "meta_mean_motion": 14.42211621,
        "meta_eccentricity": 0.0001523,
        "meta_inclination": 98.4034,
        "meta_ra_of_asc_node": 348.495,
        "meta_arg_of_pericenter": 66.3472,
        "meta_mean_anomaly": 293.7878,
        "meta_ephemeris_type": 0,
        "meta_classification_type": "U",
        "meta_norad_cat_id": 41727,
        "meta_element_set_no": 999,
        "meta_rev_at_epoch": 49121,
        "meta_bstar": 1.3497e-06,
        "meta_mean_motion_dot": -3.9e-07,
        "meta_mean_motion_ddot": 0,
        "tle_line1": "1 41727U 16049A   25342.84978058 -.00000039  00000+0  13497-5 0  9997",
        "tle_line2": "2 41727  98.4034 348.4950 0001523  66.3472 293.7878 14.42211621491218"
      },
      "geometry": {
        "type": "Point",
        "coordinates": [
          162.60556362808495,
          -36.46663730274564
        ]
      }
    },
    {
      "type": "Feature",
      "properties": {
        "norad_id": 41771,
        "name": "SKYSAT-C4",
        "group": "resource",
        "lat": 52.693356598092386,
        "lon": -0.5986365474180793,
        "alt_km": 434.89493595763724,
        "timestamp": "2025-12-09T05:43:20.385181+00:00",
        "meta_object_name": "SKYSAT-C4",
        "meta_object_id": "2016-058B",
        "meta_epoch": "2025-12-08T15:28:33.367296",
        "meta_mean_motion": 15.42072055,
        "meta_eccentricity": 0.0001122,
        "meta_inclination": 96.9373,
        "meta_ra_of_asc_node": 8.0317,
        "meta_arg_of_pericenter": 131.9874,
        "meta_mean_anomaly": 228.1469,
        "meta_ephemeris_type": 0,
        "meta_classification_type": "U",
        "meta_norad_cat_id": 41771,
        "meta_element_set_no": 999,
        "meta_rev_at_epoch": 51604,
        "meta_bstar": 0.00043998,
        "meta_mean_motion_dot": 0.00018741,
        "meta_mean_motion_ddot": 0,
        "tle_line1": "1 41771U 16058B   25342.64483064  .00018741  00000+0  43998-3 0  9997",
        "tle_line2": "2 41771  96.9373   8.0317 0001122 131.9874 228.1469 15.42072055516046"
      },
      "geometry": {
        "type": "Point",
        "coordinates": [
          -0.5986365474180793,
          52.693356598092386
        ]
      }
    }
  ]
}